SES-5 (EGNOS/PRN 136)   
1 38652U 12036A   25020.10991073  .00000048  00000+0  00000+0 0  9995
2 38652   0.0572 297.3725 0001942   2.3804 224.5114  1.00271496 45927
GSAT-10 (GAGAN/PRN 128) 
1 38779U 12051B   25020.12546235 -.00000151  00000+0  00000+0 0  9996
2 38779   0.1139 267.8968 0002446 191.0339 148.9857  1.00273641 45148
LUCH 5B (SDCM/PRN 125)  
1 38977U 12061A   25019.89131941 -.00000128  00000+0  00000+0 0  9997
2 38977   9.3650  54.7737 0004592 197.3637 171.8863  1.00273259 44469
ASTRA 5B (EGNOS/PRN 123)
1 39617U 14011B   25020.14077181  .00000151  00000+0  00000+0 0  9996
2 39617   0.0514 329.3266 0004438 320.1454 264.4495  1.00270039 39724
LUCH 5V (SDCM/PRN 141)  
1 39727U 14023A   25020.16646597 -.00000256  00000+0  00000+0 0  9993
2 39727   3.8475  74.4504 0003769 236.3974 323.5747  1.00274303557367
GSAT-15 (GAGAN/PRN 139) 
1 41028U 15065A   25019.93452137 -.00000244  00000+0  00000+0 0  9992
2 41028   0.0203  93.5695 0001712 201.6816 254.2197  1.00272637 33659
E 117 W B (WAAS/PRN 131)
1 41589U 16038B   25020.08575796  .00000001  00000+0  00000+0 0  9990
2 41589   0.0048 194.2717 0000583 311.9784 247.3307  1.00281012 31567
SES-15 (WAAS/PRN 133)   
1 42709U 17026A   25019.68298045  .00000073  00000+0  00000+0 0  9995
2 42709   0.0172  27.7421 0000376 292.1210 276.1265  1.00270446  2296
QZS-2 (QZSS/PRN 194)    
1 42738U 17028A   25019.49247865 -.00000127  00000+0  00000+0 0  9993
2 42738  40.2263 250.6336 0751862 269.8518 277.8672  1.00274786 27975
QZS-3 (QZSS/PRN 199)    
1 42917U 17048A   25019.87340993 -.00000334  00000+0  00000+0 0  9992
2 42917   0.0596 164.0587 0001636 146.1024 250.8006  1.00273916 27111
QZS-4 (QZSS/PRN 195)    
1 42965U 17062A   24362.55006255 -.00000326  00000+0  00000+0 0  9997
2 42965  40.4220 350.3323 0751752 271.9012 167.8126  1.00248203 26423
BEIDOU-3 G1 (PRN 130)   
1 43683U 18085A   25019.92242263 -.00000266  00000+0  00000+0 0  9996
2 43683   2.7318 102.2061 0000917  47.9934  81.4664  1.00270993 22916
BEIDOU-3 G2 (PRN 144)   
1 45344U 20017A   25019.91051999 -.00000129  00000+0  00000+0 0  9991
2 45344   2.6237  36.8743 0003109 269.4369 221.0385  1.00272739 18118
BEIDOU-3 G3 (PRN 143)   
1 45807U 20040A   25019.91660163 -.00000341  00000+0  00000+0 0  9996
2 45807   1.2171  59.3882 0003784 308.2844 192.3898  1.00271230 16928
GALAXY 30 (WAAS/PRN 135)
1 46114U 20056C   25019.72688233  .00000050  00000+0  00000+0 0  9998
2 46114   0.0192  61.9354 0002085 245.3540 308.7166  1.00272216 16140
QZS-1R (QZSS/PRN 196)   
1 49336U 21096A   25019.10813358 -.00000292  00000+0  00000+0 0  9991
2 49336  36.3929  87.2655 0759048 272.0393 291.1526  1.00249092 11859
HST                     
1 20580U 90037B   25019.53297781  .00011302  00000+0  46508-3 0  9995
2 20580  28.4693 330.6431 0002465 247.7016 112.3316 15.22506130709988
POLAR                   
1 23802U 96013A   25017.77407766  .00000242  00000+0  00000+0 0  9999
2 23802  79.3010 232.5616 6006331 226.4632  64.6680  1.29846647138162
SWAS                    
1 25560U 98071A   25020.17805372  .00009886  00000+0  71769-3 0  9998
2 25560  69.8975 105.3908 0009320 308.4033  51.6291 15.04103065420235
CXO                     
1 25867U 99040B   25018.70403827  .00000532  00000+0  00000+0 0  9995
2 25867  46.1607 137.5767 8637386 306.3857   0.1471  0.37807172 15388
XMM-NEWTON              
1 25989U 99066A   25021.79271387  .00000112  00000+0  00000+0 0  9999
2 25989  66.9011 289.8285 4951455  73.6760   0.1011  0.50138358 34803
TERRA                   
1 25994U 99068A   25020.19114742  .00001177  00000+0  25237-3 0  9996
2 25994  98.0207  83.0562 0003288  61.6914   2.8657 14.60407546334835
CLUSTER II-FM7 (SAMBA)  
1 26410U 00041A   25021.96986152  .00001819  00000+0  00000+0 0  9991
2 26410 142.0974   5.0088 8029703 220.2296 359.1573  0.44795421 18014
CLUSTER II-FM5 (RUMBA)  
1 26463U 00045A   25016.30733268  .00012972  00000+0  00000+0 0  9995
2 26463 153.7042  48.0140 8935888 264.9435 359.0262  0.42894705 17907
CLUSTER II-FM8 (TANGO)  
1 26464U 00045B   25020.08552377  .00001706  00000+0  00000+0 0  9999
2 26464 142.3004   5.2357 8031097 220.3268 359.1443  0.44418827 18029
ODIN                    
1 26702U 01007A   25020.04103527  .00026293  00000+0  82943-3 0  9996
2 26702  97.4630  41.6353 0005077 219.0903 140.9972 15.32833667310610
TIMED                   
1 26998U 01055B   25019.92696959  .00003769  00000+0  36489-3 0  9994
2 26998  74.0695 186.9242 0001313 210.8846 149.2261 14.93122853254291
INTEGRAL                
1 27540U 02048A   25016.26496390 -.00000278  00000+0  00000+0 0  9991
2 27540  90.7276  11.0084 8610130 275.7898  69.9268  0.37574686 24686
CORIOLIS                
1 27640U 03001A   25019.89113987  .00000353  00000+0  18731-3 0  9999
2 27640  98.7145  29.6782 0013093 249.7994 110.1775 14.19694765141380
SORCE                   
1 27651U 03004A   25019.87085275  .00007920  00000+0  65664-3 0  9994
2 27651  39.9921 300.3379 0020952 324.1989  35.7398 14.98654751194723
MOST                    
1 27843U 03031D   25019.91989799  .00000252  00000+0  13599-3 0  9997
2 27843  98.7076  29.8060 0008917 297.3702  62.6567 14.21134932117802
SCISAT 1                
1 27858U 03036A   25019.75617268  .00001924  00000+0  25743-3 0  9990
2 27858  73.9307 110.6453 0008894 290.3362  69.6858 14.80242268155443
SWIFT                   
1 28485U 04047A   25019.45467006  .00030002  00000+0  97827-3 0  9991
2 28485  20.5560  61.1478 0007046 208.9122 151.0926 15.29936283107218
CALIPSO                 
1 29108U 06016B   25019.97276440  .00003016  00000+0  54157-3 0  9993
2 29108  98.4398  13.7410 0001749  87.6515 272.4889 14.67473384997723
HINODE (SOLAR-B)        
1 29479U 06041A   25019.90985205  .00001649  00000+0  29910-3 0  9990
2 29479  98.0810  38.2577 0018957 113.7551 246.5644 14.67456784979552
SHIJIAN-6 02A (SJ-6 02A)
1 29505U 06046A   25020.10233023  .00012502  00000+0  80319-3 0  9993
2 29505  97.7010  53.2298 0005005  98.8012 261.3783 15.08572388994801
SHIJIAN-6 02B (SJ-6 02B)
1 29506U 06046B   25020.11897203  .00002604  00000+0  22006-3 0  9992
2 29506  97.7215  48.9934 0001586 328.0720  32.0407 14.98959586993814
FGRST (GLAST)           
1 33053U 08029A   25019.67489483  .00005694  00000+0  24413-3 0  9999
2 33053  25.5808 159.3447 0010128  47.5530 312.5862 15.19711213917514
SDO                     
1 36395U 10005A   25019.21851332 -.00000075  00000+0  00000+0 0  9995
2 36395  33.5730  94.2274 0001536 198.0217 163.0205  1.00269273 54916
CRYOSAT 2               
1 36508U 10013A   25020.17863613  .00000641  00000+0  15829-3 0  9999
2 36508  92.0183 153.4689 0000830  95.9786 264.1516 14.51907538783688
X-SAT                   
1 37389U 11015C   25020.12202347  .00000441  00000+0  20565-3 0  9997
2 37389  98.3032  18.2843 0015052  53.0133 307.2423 14.24934919715124
GCOM-W1 (SHIZUKU)       
1 38337U 12025A   25019.86814049  .00001612  00000+0  36753-3 0  9997
2 38337  98.2266 322.8539 0000916  77.0685 351.2235 14.57152629674280
NUSTAR                  
1 38358U 12031A   25019.91667824  .00007916  00000+0  53920-3 0  9998
2 38358   6.0253 263.3377 0008405  67.6619 249.1203 15.01154012  1303
NEOSSAT                 
1 39089U 13009D   25020.12414665  .00000521  00000+0  19591-3 0  9995
2 39089  98.4017 207.8516 0010696 341.5036  18.5760 14.35475512623132
BRITE-AUSTRIA           
1 39091U 13009F   25020.09445344  .00000572  00000+0  21082-3 0  9996
2 39091  98.3826 207.7656 0009837 338.2662  21.8106 14.36156466623405
IRIS                    
1 39197U 13033A   25020.11402022  .00004004  00000+0  48748-3 0  9991
2 39197  97.9545 215.8142 0024911 192.6121 167.4473 14.83777358624256
HISAKI (SPRINT-A)       
1 39253U 13049A   25019.93048647  .00000172  00000+0  14219-3 0  9996
2 39253  29.7212 309.2853 0137044 176.0378 184.1303 13.55464241561735
CASSIOPE                
1 39265U 13055A   25019.90048204  .00048800  00000+0  86679-3 0  9991
2 39265  80.9486 311.5681 0430059 305.9591  50.2436 14.87484396590402
STSAT-3                 
1 39422U 13066G   25020.07960743  .00008041  00000+0  68172-3 0  9990
2 39422  97.5475 357.4938 0019494 358.5122   1.6040 14.98064202607258
SWARM B                 
1 39451U 13067A   25019.89281573  .00007156  00000+0  29796-3 0  9993
2 39451  87.7510 137.6672 0002308  95.3483 264.8027 15.23582832604951
SWARM A                 
1 39452U 13067B   25019.86338540  .00012843  00000+0  33698-3 0  9993
2 39452  87.3372 244.7173 0002716  78.1117 282.0441 15.38518217627001
SWARM C                 
1 39453U 13067C   25019.86331691  .00013061  00000+0  34272-3 0  9996
2 39453  87.3372 243.3068 0002702  77.6421 282.5136 15.38516684626963
BRITE-CA1 (TORONTO)     
1 40020U 14033L   25019.93324421  .00003274  00000+0  51501-3 0  9992
2 40020  97.9030 156.0557 0082119 119.1877 241.7577 14.70940633566827
OCO 2                   
1 40059U 14035A   25019.91914006  .00001463  00000+0  33529-3 0  9996
2 40059  98.2267 323.6501 0001185  97.8971 262.2362 14.57046719561302
BRITE-PL2 (HEWELIUSZ)   
1 40119U 14049B   25019.85297460  .00004757  00000+0  48181-3 0  9998
2 40119  97.8849 124.9886 0015366  15.0109 345.1562 14.91337046564848
RESURS-P 2              
1 40360U 14087A   25020.16264577  .00354193  57313-4  58435-3 0  9996
2 40360  97.1209 118.4857 0002215 218.8000 141.3122 16.03136966565186
MMS 1                   
1 40482U 15011A   25020.25001157 -.00001582  00000+0  00000+0 0  9991
2 40482  59.4722 359.6683 8887045 155.8686  44.9055  0.28455912 15995
MMS 2                   
1 40483U 15011B   25020.25001157 -.00001583  00000+0  00000+0 0  9993
2 40483  59.4716 359.6688 8892566 155.8607  43.5133  0.28470856 15975
MMS 3                   
1 40484U 15011C   25020.25001157 -.00001583  00000+0  00000+0 0  9994
2 40484  59.4730 359.6676 8891505 155.8602  43.7769  0.28469475 15978
